FENGYUN 1C DEB          
1 31093U 99025BGP 17345.36660017  .00000088  00000-0  10606-3 0  9992
2 31093  98.6493  35.6218 0213957 188.5475 233.5758 13.78173403542457
